{"type":"Topology","arcs":[[[549,52622],[126,-301],[-65,-124],[-472,928],[-138,636],[182,147],[280,-878],[87,-408]],[[6009,68133],[226,-124],[-143,-233],[-195,164],[112,193]],[[28599,84449],[134,-256],[-112,-220],[-188,268],[166,208]],[[30190,86820],[1,-313],[-264,-36],[64,297],[199,52]],[[39534,52482],[0,-16965]],[[39534,35517],[-137,-30],[-983,-551],[-1175,-533],[-958,-253],[-879,-336],[-580,-97],[-749,-43],[-1578,161],[-539,-119],[-1114,-774],[-484,-172],[-1248,-799],[-575,-171],[-372,-55],[-318,-169],[-289,-340],[-390,-944],[-243,-448],[-535,-714],[-353,-239],[-347,33],[-388,-247],[-344,261],[-712,29],[-1540,-301],[-220,350],[-282,53],[-532,-18],[-798,107],[-1450,-133],[-698,-144],[-275,-129],[-514,82],[-873,-117],[-537,-377],[-454,-796],[-498,-263],[-866,-69],[-922,-767],[-944,-743],[-669,-204],[-691,-127],[-1076,191],[-684,21],[-856,115],[-737,364],[-566,211],[-639,801],[-397,299],[-705,363],[-368,-113],[-293,256],[-87,610],[51,1597],[460,-382],[436,10],[384,324],[412,1008],[-29,569],[-129,999],[219,295],[43,497],[31,1529],[-97,576],[-599,1168],[-394,1015],[-288,459],[-243,737],[-205,1026],[-129,1474],[72,541],[-30,317],[-251,866],[-561,808],[-93,298],[3,315],[-134,367],[-451,739],[-463,638],[-78,310],[-86,1288],[-173,588],[-783,1488],[-925,1282],[-250,525],[281,98],[107,307],[387,-987],[86,-362],[374,-110],[252,281],[40,502],[-359,324],[-288,372],[-186,597],[-290,551],[137,340],[217,-78],[426,-612],[-52,-777],[182,-203],[280,394],[154,-689],[363,-402],[308,310],[-31,486],[62,470],[-35,349],[-544,914],[-492,1130],[-298,562],[-250,847],[-372,766],[9,904],[168,783],[155,407],[501,937],[19,709],[74,467],[-66,629],[-209,521],[276,911],[401,1171],[406,329],[46,-242],[-122,-809],[175,-423],[-55,-476],[398,172],[182,250],[553,1189],[261,354],[368,261],[744,314],[723,414],[344,398],[431,345],[299,374],[289,258],[1709,1121],[709,-11],[353,50],[377,-215],[279,-24],[682,234],[365,209],[626,457],[275,131],[1357,337],[867,794],[1183,-128],[446,238],[1053,147],[583,201],[1092,527],[294,181],[447,376],[388,471],[382,636],[338,864],[378,836],[120,175],[424,249],[628,699],[205,141],[38,223],[-303,204],[-221,1250],[31,701],[248,530],[420,493],[222,82],[186,232],[300,230],[483,1058],[132,-12],[255,-830],[166,-441],[304,-517],[289,-763],[348,-575],[90,210],[113,582],[-52,409],[190,177],[332,-309],[75,388],[110,233],[-236,151],[-240,430],[-181,166],[-286,528],[223,59],[160,381],[-97,354],[299,95],[320,-566],[251,284],[414,25],[419,-327],[963,7],[-57,141],[-527,10],[-122,109],[-41,285],[114,296],[350,-29],[78,525],[97,200],[-102,141],[-252,-446],[-120,363],[-181,276],[37,394],[105,394],[300,-8],[464,629],[767,-468],[25,404],[-402,-10],[-172,445],[343,161],[111,245],[404,-62],[411,-222],[69,310],[-345,212],[-10,209],[-145,240],[-4,236],[385,467],[247,3],[353,219],[43,612],[264,-40],[-58,-287],[340,-242],[75,-382],[419,306],[-10,367],[91,461],[142,306],[-141,407],[160,59],[160,-133],[183,-481],[158,302],[197,129],[409,-423],[268,213],[250,400],[-12,497],[313,132],[253,-97],[228,-271],[477,-200],[404,-288],[529,-488],[223,-311],[304,-553],[720,-675],[46,-119],[-184,-514],[-108,-488],[-27,-719],[211,309],[177,35],[-129,508],[271,311],[290,208],[182,242],[388,20],[901,-267]],[[39534,85640],[0,-33158]],[[39534,85640],[138,-41],[262,-307],[25,-380],[154,104],[-11,519],[84,103],[470,-184],[266,-340],[204,-118],[-92,480],[60,223],[310,17],[-24,166],[-366,424],[8,261],[-305,208],[-258,290],[198,533],[394,522],[221,174],[21,176],[297,1037],[243,212],[486,159],[304,435],[-306,468],[81,560],[368,222],[201,581],[134,88],[401,34],[13,643],[278,10],[100,-201],[299,-84],[-60,466],[367,72],[55,457],[428,35],[231,244],[69,-340],[236,-199],[708,-4],[397,138],[432,-146],[465,282],[292,-158],[171,187],[349,197],[115,224],[-2,594],[109,557],[-488,469],[-485,71],[-355,-99],[-149,78],[-315,376],[-326,230],[368,270],[354,-299],[226,-71],[159,301],[176,-59],[548,-427],[308,-413],[429,341],[255,-48],[157,-136],[219,-503],[174,-250],[420,-67],[435,-262],[298,14],[614,-62],[577,-322],[240,-201],[444,-134],[296,-24],[472,227],[305,-352],[430,-271],[463,-84],[330,276],[482,204],[337,312],[252,146],[248,-256],[-459,-473],[102,-268],[476,267],[174,-118],[56,-415],[124,-273],[439,-34],[167,382],[-144,519],[426,537],[238,-19],[170,-524],[270,-277],[437,-51],[123,-317],[-1008,-1294],[-47,-144],[188,-511],[-328,-659],[-120,-32],[-289,292],[-315,-128],[-587,-368],[5,-945],[148,-562],[-261,-1022],[-341,-398],[-505,-889],[-328,-516],[118,-491],[190,-230],[741,-476],[337,-328],[579,-397],[212,-497],[717,-407],[298,64],[-16,-446],[213,-177],[533,48],[731,-561],[993,-496],[514,-726],[220,-236]],[[61643,80619],[-2,-3],[1,-28134]],[[61642,52482],[-22108,0]],[[59339,83279],[71,-343],[-105,-138],[-266,336],[165,349],[135,-204]],[[58163,83665],[13,-282],[-189,2],[21,251],[155,29]],[[59018,87701],[-97,-339],[-601,36],[-704,155],[158,305],[-40,344],[33,435],[268,212],[299,351],[146,-381],[220,-115],[-145,-686],[102,-253],[361,-64]],[[57253,89233],[147,-376],[-151,-134],[-224,58],[29,189],[199,263]],[[43410,94977],[64,-237],[-254,-57],[-455,191],[-457,-157],[-217,110],[71,318],[309,67],[-110,539],[241,348],[217,70],[114,-515],[180,-505],[297,-172]],[[45604,96033],[161,-162],[-174,-216],[-23,-234],[-186,16],[-223,-382],[-838,-642],[-752,548],[-326,371],[-219,513],[-44,420],[-89,268],[142,95],[472,-575],[328,-25],[395,224],[270,-75],[602,431],[415,-368],[89,-207]],[[58522,97100],[118,36],[-95,-543],[-351,-549],[-95,63],[219,436],[151,158],[53,399]],[[48355,97181],[89,-511],[-137,-445],[-196,461],[-24,377],[268,118]],[[61642,52482],[7369,0],[0,-8939]],[[69011,43543],[58,-15030]],[[69069,28513],[-141,113],[-5,-12116]],[[68923,16510],[-833,128],[-581,393],[-438,759],[-829,864],[-222,316],[-113,555],[266,929],[26,256],[-315,866],[-443,819],[-746,802],[-509,411],[72,271],[273,225],[273,-263],[88,549],[-326,237],[-681,-422],[-98,-142],[-358,-42],[-510,-273],[-326,-7],[-503,96],[166,375],[363,480],[273,897],[-52,777],[-132,320],[-422,644],[-430,805],[-189,-489],[-229,-363],[-110,-809],[-449,-1238],[-570,35],[-460,-142],[-314,-171],[-437,-55],[-204,45],[321,965],[926,7],[155,444],[95,496],[-83,653],[86,649],[384,899],[320,466],[371,369],[-195,1127],[344,318],[-195,964],[-319,574],[19,-731],[-272,-461],[-354,-331],[-230,-312],[-217,-704],[-286,-594],[-264,-219],[-475,-141],[-740,-436],[-503,-398],[-760,-1188],[-566,-691],[147,-316],[117,-527],[-195,-54],[-311,293],[-356,-227],[-409,540],[-615,532],[539,-3],[-339,1148],[-311,861],[-729,835],[-103,541],[-137,347],[-450,411],[-753,76],[-314,553],[-179,687],[311,54],[17,542],[-747,408],[-352,426],[-298,183],[-280,73],[-833,-3],[-1117,678],[-268,21],[-798,-211],[-267,39],[-1213,926],[-805,440],[-613,157],[-481,-208],[-405,-114],[-1605,74],[-2314,-241],[-456,-97]],[[61462,23499],[289,-87],[189,-290],[-274,-164],[-433,118],[-404,-89],[-199,-385],[-348,-142],[-163,160],[-424,115],[-151,-169],[-300,45],[-278,-68],[-387,41],[-527,425],[241,422],[1113,253],[595,212],[482,-37],[258,-153],[-95,-245],[588,-69],[228,107]],[[61643,80619],[169,-182],[426,-302],[641,-212],[295,34],[478,-246],[466,-116],[246,-341],[108,-458],[232,-480],[472,-155],[611,-477],[503,-210],[347,-272],[428,-5],[740,238],[785,626],[209,661],[124,530],[622,1098],[177,544],[158,722],[138,452],[-46,491],[144,892],[427,1635],[-54,608],[-198,1140],[175,945],[-279,674],[-20,385],[151,726],[273,878],[-77,941],[413,491],[363,116],[-191,480],[-428,260],[27,418],[288,807],[159,311],[222,-234],[-23,471],[218,788],[242,1068],[72,974],[389,185],[197,244],[122,283],[217,0],[148,-122],[-129,-376],[419,-405],[139,-312],[140,-571],[40,-374],[-6,-596],[54,-563],[285,-291],[468,-106],[-183,-641],[14,-399],[353,-280],[88,-301],[274,-421],[-10,-287],[148,-356],[134,-712],[43,-623],[140,-417],[-94,-886],[233,-664],[278,-1147],[505,-340],[353,204],[256,276],[646,209],[279,-366],[151,-411],[658,-542],[365,-348],[549,-453],[-89,-460],[102,-684],[-53,-445],[192,-670],[63,-535],[203,-523],[-15,-538],[-64,-504],[304,-652],[504,-759],[386,-97],[-25,-470],[364,-927],[186,-757],[-127,-1020],[-126,-591],[23,-289],[469,-706],[271,-131],[-90,-857],[213,-404],[240,-303],[518,-324],[337,-144],[426,-61],[335,-408],[342,-63],[345,107],[224,-285],[187,-443],[385,-439],[271,-73],[154,-222],[406,-88],[267,-170],[435,-393],[393,-64],[182,-108],[390,-430],[308,-570],[-381,39],[-113,-335],[259,-463],[666,-672],[355,-489],[185,-519],[121,-527],[306,-305],[15,-557],[157,-769],[176,-698],[266,-544],[291,151],[373,-479],[77,86],[-157,636],[97,369],[233,60],[390,-622],[753,-554],[67,521],[255,-102],[225,-470],[46,-974],[1,-816],[147,-838],[601,-710],[163,-262],[202,-122],[650,-558],[467,-77],[345,-252],[175,-233],[375,-874],[183,-307],[802,-611],[112,-481],[374,-709],[332,-215],[305,-471],[17,-764],[265,-542],[336,-279],[-199,-1013],[191,-2022],[-111,-631],[200,-626],[461,-1085],[170,-833],[148,-287]],[[99749,46089],[-328,-271],[-461,-67],[-186,-279],[-669,80],[-231,-94],[-636,280],[-197,-239],[-614,-280],[-483,-292],[252,-506],[-109,-505],[-219,-147],[-428,-66],[-77,173],[-432,-203],[-62,-237],[-333,-311],[-144,104],[-78,365],[-176,251],[-277,138],[-168,277],[-476,293],[-353,63],[-596,-35],[-317,259],[-470,16],[-729,-137],[-431,-23],[-200,138],[-206,-41],[-434,-427],[-623,-453],[-263,-369],[-19584,-1]],[[99807,48199],[-211,-820],[-140,138],[12,476],[85,299],[254,-93]],[[99177,56238],[38,-527],[151,-186],[-23,-254],[-512,-1341],[-142,-505],[-188,-138],[-75,529],[207,742],[-56,325],[371,366],[130,440],[-150,470],[249,79]],[[94133,59645],[164,-373],[-274,-61],[-371,627],[66,207],[442,-205],[-27,-195]],[[88611,69899],[158,-369],[-262,-18],[104,387]],[[81972,75627],[157,-503],[-107,-252],[-155,101],[-293,472],[398,182]],[[65304,79324],[192,-310],[-275,-59],[83,369]],[[65538,81098],[269,-357],[-339,-43],[-317,-393],[-188,-105],[-478,-135],[8,345],[320,473],[407,85],[318,130]],[[71785,98245],[164,144],[188,-336],[-204,-171],[-133,90],[-15,273]],[[72000,99708],[196,27],[99,-154],[-146,-185],[-155,55],[6,257]],[[84512,990],[108,-348],[-117,-309],[-358,210],[367,447]],[[84611,1585],[201,-478],[-210,25],[-73,260],[82,193]],[[87038,4474],[-387,138],[-286,-315],[-108,-266],[-33,-525],[-208,-407],[-24,-727],[106,-429],[56,-586],[-479,-188],[-339,595],[310,51],[64,224],[-555,246],[-62,-384],[-237,-175],[-109,415],[-364,-528],[-36,-432],[-412,-178],[-179,-280],[-122,-395],[-199,-328],[-429,31],[-370,277],[-889,-11],[-352,-103],[-120,511],[321,193],[-368,101],[-251,-45],[-173,143],[-474,733],[-300,213],[-539,1139],[-171,935],[428,-321],[152,-203],[201,155],[-384,378],[-308,92],[8,528],[-449,575],[-344,545],[-338,670],[-197,680],[-127,625],[157,590],[22,330],[245,-147],[551,-194],[590,50],[360,-263],[748,-309],[215,-187],[711,-279],[507,-135],[631,63],[366,192],[328,59],[327,196],[562,27],[250,80],[330,-134],[410,467],[617,-83],[236,277],[605,-224],[190,-275],[-18,-502],[66,-698],[-55,-344],[-5,-1044],[69,-334],[-35,-334],[96,-212]],[[87235,9670],[131,-194],[-299,-194],[-81,187],[-533,-51],[-107,282],[342,-2],[315,151],[232,-179]],[[86817,10467],[178,-134],[-277,-265],[-257,-85],[-529,738],[-126,545],[231,314],[165,-94],[437,-539],[293,-141],[-115,-339]],[[76672,11404],[50,-502],[-260,-371],[-335,-125],[-28,407],[-120,237],[57,495],[341,470],[223,-173],[72,-438]],[[69069,28513],[717,-204],[374,-212],[286,-26],[430,238],[406,-15],[568,-169],[233,-148],[296,-327],[37,-452],[93,-322],[357,-544],[226,101],[193,427],[548,-279],[629,-124],[256,-163],[88,-279],[40,-733],[400,-318],[109,-276],[319,-252],[631,-348],[471,-316],[311,-285],[339,-520],[592,-547],[321,-112],[288,56],[111,550],[298,179],[858,82],[383,-84],[558,-341],[985,-237],[265,10],[359,179],[293,-34],[752,-283],[371,-18],[271,209],[407,-99],[208,291],[321,-37],[551,83],[521,-268],[146,-403],[276,-1087],[124,-236],[-158,-453],[206,-76],[4240,-2080]],[[90973,18211],[-327,-141],[-599,-543],[-208,-122],[-448,-92],[-871,40],[-1674,-125],[-948,-309],[-602,-362],[-579,-487],[-1324,-1323],[-1035,-145],[-351,36],[-187,-247],[295,-332],[320,160],[42,-669],[-206,-240],[-593,834],[-218,94],[-331,-201],[-355,699],[-453,30],[-513,362],[161,355],[195,67],[-163,447],[-450,18],[-249,-435],[-569,-349],[-594,478],[475,-11],[382,415],[130,338],[-331,415],[-230,156],[-867,-529],[312,-396],[-299,-220],[-528,-191],[-558,-340],[-712,-705],[-670,-364],[-768,232],[-353,290],[-596,194],[-560,384],[-384,195],[-273,42],[-386,-81],[-646,345],[-490,36],[-322,-346],[-417,72],[-517,571],[-608,299]],[[79880,15787],[147,-121],[-370,-197],[-100,304],[323,14]],[[89650,24681],[-538,-160],[-109,-173],[-33,-425],[-99,-80],[44,-652],[-131,-253],[-253,80],[-143,426],[-241,106],[-54,639],[142,545],[680,492],[209,-93],[164,-279],[362,-173]],[[99749,46089],[148,-286],[-16,-873],[118,-416],[-30,-541],[-350,-583],[-280,-715],[-3,-615],[-184,-1179],[-119,-317],[-87,-492],[-387,-1190],[-17,-468],[59,-557],[-64,-535],[-97,-364],[-94,-673],[-389,-1047],[-556,-773],[-35,-588],[-184,-584],[-547,-506],[-204,-443],[-516,-187],[-348,-241],[-504,-896],[-304,-434],[-127,-519],[-344,-177],[76,-352],[-105,-678],[-120,-307],[-666,-796],[-219,-602],[-221,-1172],[69,-303],[-275,-142],[20,-234],[-339,-281],[-475,-1102],[-439,-743],[-163,-854],[-162,-1282],[-184,-513],[-68,-366],[-24,-699],[88,-531],[-108,-722]]],"transform":{"scale":[0.0004070921509215093,0.0003356110761107611],"translate":[112.90815299999998,-43.612471]},"objects":{"states":{"type":"GeometryCollection","geometries":[{"arcs":[[[0]],[[1]],[[2]],[[3]],[[4,5,6]]],"type":"MultiPolygon","properties":{"state":"Western Australia"}},{"arcs":[[[-7,7,8,9]],[[10]],[[11]],[[12]],[[13]],[[14]],[[15]],[[16]],[[17]]],"type":"MultiPolygon","properties":{"state":"Northern Territory"}},{"arcs":[[[-5,-10,18,19,20,21]],[[22]]],"type":"MultiPolygon","properties":{"state":"South Australia"}},{"arcs":[[[-9,23,24,-19]],[[25]],[[26]],[[27]],[[28]],[[29]],[[30]],[[31]],[[32]],[[33]]],"type":"MultiPolygon","properties":{"state":"Queensland"}},{"arcs":[[[34]],[[35]],[[36]],[[37]],[[38]],[[39]]],"type":"MultiPolygon","properties":{"state":"Tasmania"}},{"arcs":[[[-21,40,41]],[[42]]],"type":"MultiPolygon","properties":{"state":"Victoria"}},{"arcs":[[43]],"type":"Polygon","properties":{"state":"Australian Capital Territory"}},{"arcs":[[-20,-25,44,-41],[-44]],"type":"Polygon","properties":{"state":"New South Wales"}}]}}}